NORAD_CAT_ID,OBJECT_NAME,OBJECT_TYPE,EPOCH,MEAN_MOTION,ECCENTRICITY,INCLINATION,RA_OF_ASC_NODE,ARG_OF_PERICENTER,MEAN_ANOMALY,BSTAR,MEAN_MOTION_DOT,MEAN_MOTION_DDOT,TLE_LINE0,TLE_LINE1,TLE_LINE2,SEMIMAJOR_AXIS,PERIOD,APOGEE,PERIGEE,DECAYED
52612.0,STARLINK-4002,PAYLOAD,2024-05-29 10:07:53,15.08836784,8.6e-05,53.2184,313.7967,99.6746,260.4344,4.0815e-05,3.62e-06,0.0,0 STARLINK-4002,1 52612U 22052Q   24150.42214946  .00000362  00000-0  40815-4 0  9994,2 52612  53.2184 313.7967 0000860  99.6746 260.4344 15.08836784112841,6917.89,95.438,540.35,539.16,0.0
52612.0,STARLINK-4002,PAYLOAD,2024-05-29 16:29:26,15.08834632,8.69e-05,53.2182,312.6065,87.1648,272.9444,6.8966e-05,8.1e-06,0.0,0 STARLINK-4002,1 52612U 22052Q   24150.68711150  .00000810  00000-0  68966-4 0  9996,2 52612  53.2182 312.6065 0000869  87.1648 272.9444 15.08834632113253,6917.897,95.438,540.363,539.161,0.0
52612.0,STARLINK-4002,PAYLOAD,2024-05-30 14:44:50,15.08840863,8.79e-05,53.2182,308.4429,86.2701,273.8392,7.0022e-05,8.27e-06,0.0,0 STARLINK-4002,1 52612U 22052Q   24151.61447026  .00000827  00000-0  70022-4 0  9992,2 52612  53.2182 308.4429 0000879  86.2701 273.8392 15.08840863113021,6917.878,95.438,540.351,539.135,0.0
52612.0,STARLINK-4002,PAYLOAD,2024-05-30 17:55:36,15.08844645,8.99e-05,53.2179,307.8481,76.0715,284.0377,0.00010014,1.307e-05,0.0,0 STARLINK-4002,1 52612U 22052Q   24151.74694730  .00001307  00000-0  10014-3 0  9990,2 52612  53.2179 307.8481 0000899  76.0715 284.0377 15.08844645113414,6917.866,95.437,540.353,539.109,0.0
52612.0,STARLINK-4002,PAYLOAD,2024-05-31 14:35:36,15.08846259,9.68e-05,53.2177,303.9824,68.3143,291.7952,0.0001188,1.604e-05,0.0,0 STARLINK-4002,1 52612U 22052Q   24152.60806427  .00001604  00000-0  11880-3 0  9996,2 52612  53.2177 303.9824 0000968  68.3143 291.7952 15.08846259113176,6917.861,95.437,540.396,539.057,0.0
52612.0,STARLINK-4002,PAYLOAD,2024-05-31 17:46:22,15.08847196,8.95e-05,53.2178,303.3884,73.4522,286.6569,0.00011669,1.57e-05,0.0,0 STARLINK-4002,1 52612U 22052Q   24152.74054315  .00001570  00000-0  11669-3 0  9999,2 52612  53.2178 303.3884 0000895  73.4522 286.6569 15.08847196113194,6917.858,95.437,540.343,539.104,0.0
52612.0,STARLINK-4002,PAYLOAD,2024-06-01 03:18:41,15.08851491,9.7e-05,53.2181,301.6057,76.5789,283.5311,0.00010224,1.34e-05,0.0,0 STARLINK-4002,1 52612U 22052Q   24153.13797846  .00001340  00000-0  10224-3 0  9997,2 52612  53.2181 301.6057 0000970  76.5789 283.5311 15.08851491113626,6917.845,95.437,540.381,539.039,0.0
52612.0,STARLINK-4002,PAYLOAD,2024-06-01 09:40:15,15.08826252,0.0001363,53.2192,300.416,82.8884,277.2263,-4.4096e-05,-9.89e-06,0.0,0 STARLINK-4002,1 52612U 22052Q   24153.40296068 -.00000989  00000-0 -44096-4 0  9992,2 52612  53.2192 300.4160 0001363  82.8884 277.2263 15.08826252113660,6917.922,95.438,540.73,538.844,0.0
52612.0,STARLINK-4002,PAYLOAD,2024-06-01 14:26:25,15.08829812,0.0001446,53.2182,299.5238,80.6315,279.4841,-1.9363e-05,-5.96e-06,0.0,0 STARLINK-4002,1 52612U 22052Q   24153.60167918 -.00000596  00000-0 -19363-4 0  9998,2 52612  53.2182 299.5238 0001446  80.6315 279.4841 15.08829812113324,6917.912,95.438,540.777,538.776,0.0
52612.0,STARLINK-4002,PAYLOAD,2024-06-01 19:12:34,15.08838351,0.0001091,53.2179,298.6311,78.2347,281.8767,-6.5671e-05,-1.333e-05,0.0,0 STARLINK-4002,1 52612U 22052Q   24153.80039483 -.00001333  00000-0 -65671-4 0  9998,2 52612  53.2179 298.6311 0001091  78.2347 281.8767 15.08838351113722,6917.885,95.438,540.505,538.996,0.0
52612.0,STARLINK-4002,PAYLOAD,2024-06-02 03:09:29,15.08845126,0.0001225,53.2193,297.1442,83.42,276.6932,-2.0066e-05,-6.07e-06,0.0,0 STARLINK-4002,1 52612U 22052Q   24154.13158956 -.00000607  00000-0 -20066-4 0  9994,2 52612  53.2193 297.1442 0001225  83.4200 276.6932 15.08845126113771,6917.865,95.437,540.577,538.882,0.0
52612.0,STARLINK-4002,PAYLOAD,2024-06-02 09:31:02,15.08833546,0.0001057,53.2199,295.9549,88.341,271.7703,0.00014919,2.087e-05,0.0,0 STARLINK-4002,1 52612U 22052Q   24154.39655273  .00002087  00000-0  14919-3 0  9997,2 52612  53.2199 295.9549 0001057  88.3410 271.7703 15.08833546113811,6917.9,95.438,540.496,539.034,0.0
52612.0,STARLINK-4002,PAYLOAD,2024-06-02 15:52:34,15.08839374,0.0001065,53.2195,294.7655,87.4152,272.6962,0.00018423,2.645e-05,0.0,0 STARLINK-4002,1 52612U 22052Q   24154.66150991  .00002645  00000-0  18423-3 0  9998,2 52612  53.2195 294.7655 0001065  87.4152 272.6962 15.08839374113489,6917.882,95.438,540.484,539.011,0.0
52612.0,STARLINK-4002,PAYLOAD,2024-06-03 12:32:35,15.08835901,0.0001231,53.2175,290.9011,83.9835,276.1297,0.00020574,2.988e-05,0.0,0 STARLINK-4002,1 52612U 22052Q   24155.52263447  .00002988  00000-0  20574-3 0  9995,2 52612  53.2175 290.9011 0001231  83.9835 276.1297 15.08835901113982,6917.893,95.438,540.61,538.906,0.0
52612.0,STARLINK-4002,PAYLOAD,2024-06-03 18:54:08,15.0883775,0.000111,53.2186,289.7103,91.9696,268.1423,0.00013209,1.815e-05,0.0,0 STARLINK-4002,1 52612U 22052Q   24155.78759500  .00001815  00000-0  13209-3 0  9998,2 52612  53.2186 289.7103 0001110  91.9696 268.1423 15.08837750113652,6917.887,95.438,540.52,538.984,0.0
52612.0,STARLINK-4002,PAYLOAD,2024-06-04 09:12:36,15.08840852,0.0001062,53.2172,287.0345,94.055,266.0564,0.00010698,1.415e-05,0.0,0 STARLINK-4002,1 52612U 22052Q   24156.38375449  .00001415  00000-0  10698-3 0  9996,2 52612  53.2172 287.0345 0001062  94.0550 266.0564 15.08840852113745,6917.878,95.438,540.477,539.008,0.0
52612.0,STARLINK-4002,PAYLOAD,2024-06-04 15:34:08,15.08843126,0.0001015,53.217,285.8458,90.6408,269.47,0.00012221,1.658e-05,0.0,0 STARLINK-4002,1 52612U 22052Q   24156.64871301  .00001658  00000-0  12221-3 0  9996,2 52612  53.2170 285.8458 0001015  90.6408 269.4700 15.08843126114158,6917.871,95.437,540.438,539.034,0.0
52612.0,STARLINK-4002,PAYLOAD,2024-06-05 01:06:27,15.08852613,0.0001559,53.2186,284.06,90.7727,269.3444,0.00021417,3.123e-05,0.0,0 STARLINK-4002,1 52612U 22052Q   24157.04614678  .00003123  00000-0  21417-3 0  9999,2 52612  53.2186 284.0600 0001559  90.7727 269.3444 15.08852613114215,6917.842,95.437,540.785,538.628,0.0
52612.0,STARLINK-4002,PAYLOAD,2024-06-05 12:14:10,15.08817209,0.000105,53.2152,281.98,97.5469,262.5642,-0.00025052,-4.27e-05,0.0,0 STARLINK-4002,1 52612U 22052Q   24157.50984560 -.00004270  00000-0 -25052-3 0  9995,2 52612  53.2152 281.9800 0001050  97.5469 262.5642 15.08817209114284,6917.95,95.439,540.541,539.089,0.0
52612.0,STARLINK-4002,PAYLOAD,2024-06-05 15:24:56,15.08826081,9.75e-05,53.2151,281.3851,96.4533,263.657,-9.8358e-05,-1.852e-05,0.0,0 STARLINK-4002,1 52612U 22052Q   24157.64232369 -.00001852  00000-0 -98358-4 0  9996,2 52612  53.2151 281.3851 0000975  96.4533 263.6570 15.08826081113939,6917.923,95.438,540.462,539.113,0.0
52612.0,STARLINK-4002,PAYLOAD,2024-06-05 20:11:06,15.08833298,0.0001132,53.2178,280.4924,92.1211,267.9911,1.228e-05,-9.2e-07,0.0,0 STARLINK-4002,1 52612U 22052Q   24157.84104235 -.00000092  00000-0  12280-4 0  9992,2 52612  53.2178 280.4924 0001132  92.1211 267.9911 15.08833298114330,6917.901,95.438,540.549,538.983,0.0
52612.0,STARLINK-4002,PAYLOAD,2024-06-06 12:04:57,15.08833653,0.0001042,53.2152,277.5184,82.5871,277.524,-1.4268e-05,-5.15e-06,0.0,0 STARLINK-4002,1 52612U 22052Q   24158.50344360 -.00000515  00000-0 -14268-4 0  9990,2 52612  53.2152 277.5184 0001042  82.5871 277.5240 15.08833653114069,6917.9,95.438,540.486,539.044,0.0
52612.0,STARLINK-4002,PAYLOAD,2024-06-07 08:44:58,15.08839161,0.0001578,53.2197,273.6537,95.0459,265.0714,0.00039715,6.038e-05,0.0,0 STARLINK-4002,1 52612U 22052Q   24159.36456421  .00006038  00000-0  39715-3 0  9994,2 52612  53.2197 273.6537 0001578  95.0459 265.0714 15.08839161114565,6917.883,95.438,540.84,538.656,0.0
52612.0,STARLINK-4002,PAYLOAD,2024-06-08 13:21:54,15.08841594,0.0001205,53.2142,268.3015,96.4102,263.7027,7.0886e-05,8.41e-06,0.0,0 STARLINK-4002,1 52612U 22052Q   24160.55688047  .00000841  00000-0  70886-4 0  9999,2 52612  53.2142 268.3015 0001205  96.4102 263.7027 15.08841594114749,6917.876,95.437,540.574,538.907,0.0
52612.0,STARLINK-4002,PAYLOAD,2024-06-09 00:29:35,15.08865919,0.0001148,53.2143,266.2158,96.2928,263.8195,0.00046152,7.07e-05,0.0,0 STARLINK-4002,1 52612U 22052Q   24161.02054763  .00007070  00000-0  46152-3 0  9993,2 52612  53.2143 266.2158 0001148  96.2928 263.8195 15.08865919114817,6917.801,95.436,540.46,538.872,0.0
52612.0,STARLINK-4002,PAYLOAD,2024-06-09 11:37:18,15.08833418,0.0001329,53.2144,264.1355,90.5292,269.5852,-0.00018338,-3.205e-05,0.0,0 STARLINK-4002,1 52612U 22052Q   24161.48423807 -.00003205  00000-0 -18338-3 0  9995,2 52612  53.2144 264.1355 0001329  90.5292 269.5852 15.08833418114885,6917.901,95.438,540.685,538.846,0.0
52612.0,STARLINK-4002,PAYLOAD,2024-06-10 13:03:28,15.08841414,0.0001191,53.2157,259.3781,85.5775,274.5353,0.00026503,3.933e-05,0.0,0 STARLINK-4002,1 52612U 22052Q   24162.54408020  .00003933  00000-0  26503-3 0  9992,2 52612  53.2157 259.3781 0001191  85.5775 274.5353 15.08841414115041,6917.876,95.437,540.565,538.917,0.0
52612.0,STARLINK-4002,PAYLOAD,2024-06-11 12:54:15,15.08843155,0.000123,53.2161,254.9177,83.2523,276.8609,0.0002842,4.238e-05,0.0,0 STARLINK-4002,1 52612U 22052Q   24163.53768275  .00004238  00000-0  28420-3 0  9992,2 52612  53.2161 254.9177 0001230  83.2523 276.8609 15.08843155114824,6917.871,95.437,540.587,538.885,0.0
52612.0,STARLINK-4002,PAYLOAD,2024-06-12 06:23:30,15.08836974,0.0001215,53.2158,251.6462,83.6817,276.4313,7.5597e-05,9.15e-06,0.0,0 STARLINK-4002,1 52612U 22052Q   24164.26632558  .00000915  00000-0  75597-4 0  9993,2 52612  53.2158 251.6462 0001215  83.6817 276.4313 15.08836974114935,6917.89,95.438,540.595,538.914,0.0
52612.0,STARLINK-4002,PAYLOAD,2024-06-12 12:45:03,15.08828764,0.0001185,53.216,250.4577,82.8803,277.2324,-5.1169e-05,-1.102e-05,0.0,0 STARLINK-4002,1 52612U 22052Q   24164.53129031 -.00001102  00000-0 -51169-4 0  9990,2 52612  53.2160 250.4577 0001185  82.8803 277.2324 15.08828764115349,6917.915,95.438,540.6,538.96,0.0
